HULIANWANG DIGUI-92     
1 66000U 25231F   26195.34664502 -.00000104  00000+0  42300-4 0  9996
2 66000  50.0058  78.2461 0000558 338.2337  21.8511 13.29328872 36504
HULIANWANG DIGUI-93     
1 66001U 25231G   26195.40508382 -.00000101  00000+0  50669-4 0  9991
2 66001  50.0024  77.8242 0000548 332.4434  27.6409 13.29327999 36513
HULIANWANG DIGUI-94     
1 66002U 25231H   26195.41359044 -.00000101  00000+0  50274-4 0  9994
2 66002  50.0064  77.9509 0000579 333.7246  26.3597 13.29325920 36510
HULIANWANG DIGUI-95     
1 66003U 25231J   26194.94570519 -.00000100  00000+0  51505-4 0  9991
2 66003  50.0036  79.4244 0000509 336.4830  23.6018 13.29332434 36454
HULIANWANG DIGUI-96     
1 66412U 25258A   26195.27012210 -.00000107  00000+0  37308-4 0  9992
2 66412  50.0022 198.5045 0000869 247.0535 113.0246 13.29327223 33334
HULIANWANG DIGUI-97     
1 66413U 25258B   26195.45385005 -.00000106  00000+0  39640-4 0  9998
2 66413  49.9984 198.0704 0001029 246.8232 113.2531 13.29326663 33354
HULIANWANG DIGUI-98     
1 66414U 25258C   26195.44563950 -.00000101  00000+0  48959-4 0  9993
2 66414  50.0020 198.1053 0001108 243.1458 116.9301 13.29323159 33357
HULIANWANG DIGUI-99     
1 66415U 25258D   26195.41215626 -.00000109  00000+0  32467-4 0  9990
2 66415  50.0021 197.9242 0000984 250.0650 110.0116 13.29326499 33346
HULIANWANG DIGUI-100    
1 66416U 25258E   26195.43727668 -.00000099  00000+0  54209-4 0  9993
2 66416  50.0025 198.0665 0001017 253.3538 106.7222 13.29323269 33365
HULIANWANG DIGUI-101    
1 66417U 25258F   26195.42874427 -.00000106  00000+0  37764-4 0  9995
2 66417  49.9974 197.9148 0000835 249.4281 110.6501 13.29327119 33360
HULIANWANG DIGUI-103    
1 66419U 25258H   26195.39533907 -.00000107  00000+0  36714-4 0  9993
2 66419  49.9981 197.7509 0000974 257.3343 102.7421 13.29326233 33358
HULIANWANG DIGUI-104    
1 66420U 25258J   26195.38702781 -.00000114  00000+0  21598-4 0  9994
2 66420  50.0001 197.7470 0000939 245.5351 114.5423 13.29326225 33345
