{"fetched_at":"2026-07-14T17:40:48.257Z","source":"https://celestrak.org/NORAD/elements/gp.php?NAME=HULIANWANG&FORMAT=JSON","constellation":"guowang","records":[{"OBJECT_NAME":"HULIANWANG DIGUI-92","OBJECT_ID":"2025-231F","EPOCH":"2026-07-14T08:19:10.128864","CLASSIFICATION_TYPE":"U","MEAN_MOTION":13.29328872,"ECCENTRICITY":0.0000558,"INCLINATION":50.0058,"RA_OF_ASC_NODE":78.2461,"ARG_OF_PERICENTER":338.2337,"MEAN_ANOMALY":21.8511,"EPHEMERIS_TYPE":0,"NORAD_CAT_ID":66000,"ELEMENT_SET_NO":999,"REV_AT_EPOCH":3650,"BSTAR":0.0000423,"MEAN_MOTION_DOT":-0.00000104,"MEAN_MOTION_DDOT":0},{"OBJECT_NAME":"HULIANWANG DIGUI-93","OBJECT_ID":"2025-231G","EPOCH":"2026-07-14T09:43:19.242048","CLASSIFICATION_TYPE":"U","MEAN_MOTION":13.29327999,"ECCENTRICITY":0.0000548,"INCLINATION":50.0024,"RA_OF_ASC_NODE":77.8242,"ARG_OF_PERICENTER":332.4434,"MEAN_ANOMALY":27.6409,"EPHEMERIS_TYPE":0,"NORAD_CAT_ID":66001,"ELEMENT_SET_NO":999,"REV_AT_EPOCH":3651,"BSTAR":0.000050669,"MEAN_MOTION_DOT":-0.00000101,"MEAN_MOTION_DDOT":0},{"OBJECT_NAME":"HULIANWANG DIGUI-94","OBJECT_ID":"2025-231H","EPOCH":"2026-07-14T09:55:34.214016","CLASSIFICATION_TYPE":"U","MEAN_MOTION":13.2932592,"ECCENTRICITY":0.0000579,"INCLINATION":50.0064,"RA_OF_ASC_NODE":77.9509,"ARG_OF_PERICENTER":333.7246,"MEAN_ANOMALY":26.3597,"EPHEMERIS_TYPE":0,"NORAD_CAT_ID":66002,"ELEMENT_SET_NO":999,"REV_AT_EPOCH":3651,"BSTAR":0.000050274,"MEAN_MOTION_DOT":-0.00000101,"MEAN_MOTION_DDOT":0},{"OBJECT_NAME":"HULIANWANG DIGUI-95","OBJECT_ID":"2025-231J","EPOCH":"2026-07-13T22:41:48.928416","CLASSIFICATION_TYPE":"U","MEAN_MOTION":13.29332434,"ECCENTRICITY":0.000051,"INCLINATION":50.0036,"RA_OF_ASC_NODE":79.4244,"ARG_OF_PERICENTER":336.483,"MEAN_ANOMALY":23.6018,"EPHEMERIS_TYPE":0,"NORAD_CAT_ID":66003,"ELEMENT_SET_NO":999,"REV_AT_EPOCH":3645,"BSTAR":0.000051505,"MEAN_MOTION_DOT":-0.000001,"MEAN_MOTION_DDOT":0},{"OBJECT_NAME":"HULIANWANG DIGUI-96","OBJECT_ID":"2025-258A","EPOCH":"2026-07-14T06:28:58.548576","CLASSIFICATION_TYPE":"U","MEAN_MOTION":13.29327223,"ECCENTRICITY":0.000087,"INCLINATION":50.0022,"RA_OF_ASC_NODE":198.5045,"ARG_OF_PERICENTER":247.0535,"MEAN_ANOMALY":113.0246,"EPHEMERIS_TYPE":0,"NORAD_CAT_ID":66412,"ELEMENT_SET_NO":999,"REV_AT_EPOCH":3333,"BSTAR":0.000037308,"MEAN_MOTION_DOT":-0.00000107,"MEAN_MOTION_DDOT":0},{"OBJECT_NAME":"HULIANWANG DIGUI-97","OBJECT_ID":"2025-258B","EPOCH":"2026-07-14T10:53:32.644320","CLASSIFICATION_TYPE":"U","MEAN_MOTION":13.29326663,"ECCENTRICITY":0.0001029,"INCLINATION":49.9984,"RA_OF_ASC_NODE":198.0704,"ARG_OF_PERICENTER":246.8232,"MEAN_ANOMALY":113.2531,"EPHEMERIS_TYPE":0,"NORAD_CAT_ID":66413,"ELEMENT_SET_NO":999,"REV_AT_EPOCH":3335,"BSTAR":0.00003964,"MEAN_MOTION_DOT":-0.00000106,"MEAN_MOTION_DDOT":0},{"OBJECT_NAME":"HULIANWANG DIGUI-98","OBJECT_ID":"2025-258C","EPOCH":"2026-07-14T10:41:43.251936","CLASSIFICATION_TYPE":"U","MEAN_MOTION":13.29323159,"ECCENTRICITY":0.0001108,"INCLINATION":50.002,"RA_OF_ASC_NODE":198.1053,"ARG_OF_PERICENTER":243.1458,"MEAN_ANOMALY":116.9301,"EPHEMERIS_TYPE":0,"NORAD_CAT_ID":66414,"ELEMENT_SET_NO":999,"REV_AT_EPOCH":3335,"BSTAR":0.000048959,"MEAN_MOTION_DOT":-0.00000101,"MEAN_MOTION_DDOT":0},{"OBJECT_NAME":"HULIANWANG DIGUI-99","OBJECT_ID":"2025-258D","EPOCH":"2026-07-14T09:53:30.300000","CLASSIFICATION_TYPE":"U","MEAN_MOTION":13.29326499,"ECCENTRICITY":0.0000985,"INCLINATION":50.0021,"RA_OF_ASC_NODE":197.9242,"ARG_OF_PERICENTER":250.065,"MEAN_ANOMALY":110.0116,"EPHEMERIS_TYPE":0,"NORAD_CAT_ID":66415,"ELEMENT_SET_NO":999,"REV_AT_EPOCH":3334,"BSTAR":0.000032467,"MEAN_MOTION_DOT":-0.00000109,"MEAN_MOTION_DDOT":0},{"OBJECT_NAME":"HULIANWANG DIGUI-100","OBJECT_ID":"2025-258E","EPOCH":"2026-07-14T10:29:40.705152","CLASSIFICATION_TYPE":"U","MEAN_MOTION":13.29323269,"ECCENTRICITY":0.0001017,"INCLINATION":50.0025,"RA_OF_ASC_NODE":198.0665,"ARG_OF_PERICENTER":253.3538,"MEAN_ANOMALY":106.7222,"EPHEMERIS_TYPE":0,"NORAD_CAT_ID":66416,"ELEMENT_SET_NO":999,"REV_AT_EPOCH":3336,"BSTAR":0.000054209,"MEAN_MOTION_DOT":-9.9e-7,"MEAN_MOTION_DDOT":0},{"OBJECT_NAME":"HULIANWANG DIGUI-101","OBJECT_ID":"2025-258F","EPOCH":"2026-07-14T10:17:23.504064","CLASSIFICATION_TYPE":"U","MEAN_MOTION":13.29327119,"ECCENTRICITY":0.0000835,"INCLINATION":49.9974,"RA_OF_ASC_NODE":197.9148,"ARG_OF_PERICENTER":249.4281,"MEAN_ANOMALY":110.6501,"EPHEMERIS_TYPE":0,"NORAD_CAT_ID":66417,"ELEMENT_SET_NO":999,"REV_AT_EPOCH":3336,"BSTAR":0.000037764,"MEAN_MOTION_DOT":-0.00000106,"MEAN_MOTION_DDOT":0},{"OBJECT_NAME":"HULIANWANG DIGUI-103","OBJECT_ID":"2025-258H","EPOCH":"2026-07-14T09:29:17.294784","CLASSIFICATION_TYPE":"U","MEAN_MOTION":13.29326233,"ECCENTRICITY":0.0000974,"INCLINATION":49.9981,"RA_OF_ASC_NODE":197.7509,"ARG_OF_PERICENTER":257.3343,"MEAN_ANOMALY":102.7421,"EPHEMERIS_TYPE":0,"NORAD_CAT_ID":66419,"ELEMENT_SET_NO":999,"REV_AT_EPOCH":3335,"BSTAR":0.000036714,"MEAN_MOTION_DOT":-0.00000107,"MEAN_MOTION_DDOT":0},{"OBJECT_NAME":"HULIANWANG DIGUI-104","OBJECT_ID":"2025-258J","EPOCH":"2026-07-14T09:17:19.201920","CLASSIFICATION_TYPE":"U","MEAN_MOTION":13.29326224,"ECCENTRICITY":0.0000939,"INCLINATION":50.0001,"RA_OF_ASC_NODE":197.747,"ARG_OF_PERICENTER":245.5351,"MEAN_ANOMALY":114.5423,"EPHEMERIS_TYPE":0,"NORAD_CAT_ID":66420,"ELEMENT_SET_NO":999,"REV_AT_EPOCH":3334,"BSTAR":0.000021598,"MEAN_MOTION_DOT":-0.00000114,"MEAN_MOTION_DDOT":0}]}
